{
  "norad_id": 67778,
  "name": "KUIPER-00214",
  "history": [
    {
      "epoch": "2026-03-28T12:49:00.525504",
      "apogee_km": 454.8297820898197,
      "perigee_km": 452.2909867078288,
      "latitude_deg": -30.10812969965461,
      "longitude_deg": -70.93274943972938,
      "semi_major_axis_km": 6831.6973843988235,
      "eccentricity": 0.00018581,
      "inclination_deg": 51.8845,
      "raan_deg": 127.9063,
      "arg_perigee_deg": 36.6662,
      "mean_anomaly_deg": 323.4452,
      "mean_motion_rev_day": 15.3748126
    }
  ]
}